{"type": "FeatureCollection", "features": [ {"type": "Feature", "properties": {"norad_id": 41556, "name": "ZIYUAN 3-02 (ZY 3-02)", "group": "resource", "lat": 28.256704971452347, "lon": -109.70750913584597, "alt_km": 499.2586195634831, "timestamp": "2025-12-18T04:58:34.237966+00:00", "meta": {"OBJECT_NAME": "ZIYUAN 3-02 (ZY 3-02)", "OBJECT_ID": "2016-033A", "EPOCH": "2025-12-17T23:34:32.036736", "MEAN_MOTION": 15.21129815, "ECCENTRICITY": 0.00108688, "INCLINATION": 97.4045, "RA_OF_ASC_NODE": 66.0632, "ARG_OF_PERICENTER": 226.7245, "MEAN_ANOMALY": 133.3085, "EPHEMERIS_TYPE": 0, "CLASSIFICATION_TYPE": "U", "NORAD_CAT_ID": 41556, "ELEMENT_SET_NO": 999, "REV_AT_EPOCH": 53043, "BSTAR": 0.00026348933, "MEAN_MOTION_DOT": 5.805e-05, "MEAN_MOTION_DDOT": 0}, "tle": {"line1": "1 41556U 16033A   25351.98231524  .00005805  00000+0  26349-3 0  9998", "line2": "2 41556  97.4045  66.0632 0010868 226.7245 133.3085 15.21129815530439"}}, "geometry": {"type": "Point", "coordinates": [-109.70750913584597, 28.256704971452347]}}, {"type": "Feature", "properties": {"norad_id": 41599, "name": "CARTOSAT-2C", "group": "resource", "lat": 52.58194890676585, "lon": 39.518781557257995, "alt_km": 495.8598093878618, "timestamp": "2025-12-18T04:58:34.237977+00:00", "meta": {"OBJECT_NAME": "CARTOSAT-2C", "OBJECT_ID": "2016-040A", "EPOCH": "2025-12-17T22:25:11.495712", "MEAN_MOTION": 15.19161701, "ECCENTRICITY": 0.00111729, "INCLINATION": 97.476, "RA_OF_ASC_NODE": 49.1319, "ARG_OF_PERICENTER": 47.3383, "MEAN_ANOMALY": 312.8791, "EPHEMERIS_TYPE": 0, "CLASSIFICATION_TYPE": "U", "NORAD_CAT_ID": 41599, "ELEMENT_SET_NO": 999, "REV_AT_EPOCH": 52619, "BSTAR": 0.00014788745, "MEAN_MOTION_DOT": 3.044e-05, "MEAN_MOTION_DDOT": 0}, "tle": {"line1": "1 41599U 16040A   25351.93416083  .00003044  00000+0  14789-3 0  9991", "line2": "2 41599  97.4760  49.1319 0011172  47.3383 312.8791 15.19161701526196"}}, "geometry": {"type": "Point", "coordinates": [39.518781557257995, 52.58194890676585]}}, {"type": "Feature", "properties": {"norad_id": 41601, "name": "SKYSAT-C1", "group": "resource", "lat": 11.625281882900577, "lon": 27.468601686641904, "alt_km": 468.0842586644103, "timestamp": "2025-12-18T04:58:34.237988+00:00", "meta": {"OBJECT_NAME": "SKYSAT-C1", "OBJECT_ID": "2016-040C", "EPOCH": "2025-12-17T16:23:24.027936", "MEAN_MOTION": 15.32679137, "ECCENTRICITY": 0.00018049, "INCLINATION": 96.9821, "RA_OF_ASC_NODE": 28.4184, "ARG_OF_PERICENTER": 359.1942, "MEAN_ANOMALY": 0.9298, "EPHEMERIS_TYPE": 0, "CLASSIFICATION_TYPE": "U", "NORAD_CAT_ID": 41601, "ELEMENT_SET_NO": 999, "REV_AT_EPOCH": 53003, "BSTAR": 0.00023863164, "MEAN_MOTION_DOT": 7.459e-05, "MEAN_MOTION_DDOT": 0}, "tle": {"line1": "1 41601U 16040C   25351.68291699  .00007459  00000+0  23863-3 0  9998", "line2": "2 41601  96.9821  28.4184 0001804 359.1942   0.9298 15.32679137530035"}}, "geometry": {"type": "Point", "coordinates": [27.468601686641904, 11.625281882900577]}}, {"type": "Feature", "properties": {"norad_id": 41603, "name": "LAPAN-A3", "group": "resource", "lat": 44.81003489516544, "lon": 176.7205333592738, "alt_km": 473.5497918262936, "timestamp": "2025-12-18T04:58:34.237999+00:00", "meta": {"OBJECT_NAME": "LAPAN-A3", "OBJECT_ID": "2016-040E", "EPOCH": "2025-12-17T23:41:08.857248", "MEAN_MOTION": 15.31594094, "ECCENTRICITY": 0.0009135, "INCLINATION": 97.1423, "RA_OF_ASC_NODE": 349.3524, "ARG_OF_PERICENTER": 312.838, "MEAN_ANOMALY": 47.2093, "EPHEMERIS_TYPE": 0, "CLASSIFICATION_TYPE": "U", "NORAD_CAT_ID": 41603, "ELEMENT_SET_NO": 999, "REV_AT_EPOCH": 52706, "BSTAR": 0.00011106052, "MEAN_MOTION_DOT": 3.317e-05, "MEAN_MOTION_DDOT": 0}, "tle": {"line1": "1 41603U 16040E   25351.98690807  .00003317  00000+0  11106-3 0  9993", "line2": "2 41603  97.1423 349.3524 0009135 312.8380  47.2093 15.31594094527061"}}, "geometry": {"type": "Point", "coordinates": [176.7205333592738, 44.81003489516544]}}, {"type": "Feature", "properties": {"norad_id": 41604, "name": "BIROS", "group": "resource", "lat": 41.05657842800326, "lon": 17.663298522120986, "alt_km": 294.27357753508113, "timestamp": "2025-12-18T04:58:34.238010+00:00", "meta": {"OBJECT_NAME": "BIROS", "OBJECT_ID": "2016-040F", "EPOCH": "2025-12-17T15:13:21.855072", "MEAN_MOTION": 15.91577007, "ECCENTRICITY": 0.0003703, "INCLINATION": 97.0677, "RA_OF_ASC_NODE": 23.2697, "ARG_OF_PERICENTER": 135.7681, "MEAN_ANOMALY": 224.389, "EPHEMERIS_TYPE": 0, "CLASSIFICATION_TYPE": "U", "NORAD_CAT_ID": 41604, "ELEMENT_SET_NO": 999, "REV_AT_EPOCH": 52950, "BSTAR": 0.00056136978, "MEAN_MOTION_DOT": 0.00180274, "MEAN_MOTION_DDOT": 1.3913944e-05}, "tle": {"line1": "1 41604U 16040F   25351.63428073  .00180274  13914-4  56137-3 0  9994", "line2": "2 41604  97.0677  23.2697 0003703 135.7681 224.3890 15.91577007529507"}}, "geometry": {"type": "Point", "coordinates": [17.663298522120986, 41.05657842800326]}}, {"type": "Feature", "properties": {"norad_id": 41727, "name": "GAOFEN-3", "group": "resource", "lat": -43.399732568115844, "lon": 5.746513472056383, "alt_km": 758.0178047013769, "timestamp": "2025-12-18T04:58:34.238020+00:00", "meta": {"OBJECT_NAME": "GAOFEN-3", "OBJECT_ID": "2016-049A", "EPOCH": "2025-12-18T00:11:04.362432", "MEAN_MOTION": 14.42215077, "ECCENTRICITY": 0.00012673, "INCLINATION": 98.4037, "RA_OF_ASC_NODE": 357.514, "ARG_OF_PERICENTER": 58.7158, "MEAN_ANOMALY": 301.4156, "EPHEMERIS_TYPE": 0, "CLASSIFICATION_TYPE": "U", "NORAD_CAT_ID": 41727, "ELEMENT_SET_NO": 999, "REV_AT_EPOCH": 49253, "BSTAR": 3.7821485e-05, "MEAN_MOTION_DOT": 8.1e-07, "MEAN_MOTION_DDOT": 0}, "tle": {"line1": "1 41727U 16049A   25352.00768938  .00000081  00000+0  37821-4 0  9992", "line2": "2 41727  98.4037 357.5140 0001267  58.7158 301.4156 14.42215077492535"}}, "geometry": {"type": "Point", "coordinates": [5.746513472056383, -43.399732568115844]}}, {"type": "Feature", "properties": {"norad_id": 41771, "name": "SKYSAT-C4", "group": "resource", "lat": 42.08583858594314, "lon": -156.5573080756404, "alt_km": 434.3769684528652, "timestamp": "2025-12-18T04:58:34.238034+00:00", "meta": {"OBJECT_NAME": "SKYSAT-C4", "OBJECT_ID": "2016-058B", "EPOCH": "2025-12-17T14:22:08.091264", "MEAN_MOTION": 15.42388294, "ECCENTRICITY": 0.00019426, "INCLINATION": 96.9369, "RA_OF_ASC_NODE": 16.5506, "ARG_OF_PERICENTER": 131.7444, "MEAN_ANOMALY": 228.3971, "EPHEMERIS_TYPE": 0, "CLASSIFICATION_TYPE": "U", "NORAD_CAT_ID": 41771, "ELEMENT_SET_NO": 999, "REV_AT_EPOCH": 51742, "BSTAR": 0.00028161381, "MEAN_MOTION_DOT": 0.00012085, "MEAN_MOTION_DDOT": 0}, "tle": {"line1": "1 41771U 16058B   25351.59870476  .00012085  00000+0  28161-3 0  9998", "line2": "2 41771  96.9369  16.5506 0001942 131.7444 228.3971 15.42388294517424"}}, "geometry": {"type": "Point", "coordinates": [-156.5573080756404, 42.08583858594314]}}, {"type": "Feature", "properties": {"norad_id": 41772, "name": "SKYSAT-C5", "group": "resource", "lat": -70.10763656294705, "lon": -164.34529164943729, "alt_km": 468.8249959680006, "timestamp": "2025-12-18T04:58:34.238044+00:00", "meta": {"OBJECT_NAME": "SKYSAT-C5", "OBJECT_ID": "2016-058C", "EPOCH": "2025-12-17T18:29:23.948448", "MEAN_MOTION": 15.33964959, "ECCENTRICITY": 0.00037641, "INCLINATION": 97.0757, "RA_OF_ASC_NODE": 35.3128, "ARG_OF_PERICENTER": 269.6367, "MEAN_ANOMALY": 90.4445, "EPHEMERIS_TYPE": 0, "CLASSIFICATION_TYPE": "U", "NORAD_CAT_ID": 41772, "ELEMENT_SET_NO": 999, "REV_AT_EPOCH": 51593, "BSTAR": 0.00022831644, "MEAN_MOTION_DOT": 7.429e-05, "MEAN_MOTION_DDOT": 0}, "tle": {"line1": "1 41772U 16058C   25351.77041607  .00007429  00000+0  22832-3 0  9990", "line2": "2 41772  97.0757  35.3128 0003764 269.6367  90.4445 15.33964959515932"}}, "geometry": {"type": "Point", "coordinates": [-164.34529164943729, -70.10763656294705]}}, {"type": "Feature", "properties": {"norad_id": 41773, "name": "SKYSAT-C2", "group": "resource", "lat": -35.8021948170488, "lon": 21.613515817546403, "alt_km": 458.8083869831207, "timestamp": "2025-12-18T04:58:34.238054+00:00", "meta": {"OBJECT_NAME": "SKYSAT-C2", "OBJECT_ID": "2016-058D", "EPOCH": "2025-12-17T19:45:36.795456", "MEAN_MOTION": 15.37384895, "ECCENTRICITY": 0.0003684, "INCLINATION": 97.0355, "RA_OF_ASC_NODE": 16.1351, "ARG_OF_PERICENTER": 21.2199, "MEAN_ANOMALY": 338.9198, "EPHEMERIS_TYPE": 0, "CLASSIFICATION_TYPE": "U", "NORAD_CAT_ID": 41773, "ELEMENT_SET_NO": 999, "REV_AT_EPOCH": 51714, "BSTAR": 0.00027499147, "MEAN_MOTION_DOT": 0.00010004, "MEAN_MOTION_DDOT": 0}, "tle": {"line1": "1 41773U 16058D   25351.82334254  .00010004  00000+0  27499-3 0  9997", "line2": "2 41773  97.0355  16.1351 0003684  21.2199 338.9198 15.37384895517147"}}, "geometry": {"type": "Point", "coordinates": [21.613515817546403, -35.8021948170488]}}, {"type": "Feature", "properties": {"norad_id": 41774, "name": "SKYSAT-C3", "group": "resource", "lat": -65.76424581962983, "lon": 41.37353795850789, "alt_km": 441.10796975726225, "timestamp": "2025-12-18T04:58:34.238065+00:00", "meta": {"OBJECT_NAME": "SKYSAT-C3", "OBJECT_ID": "2016-058E", "EPOCH": "2025-12-17T19:56:08.360448", "MEAN_MOTION": 15.44576204, "ECCENTRICITY": 0.00018353, "INCLINATION": 96.9293, "RA_OF_ASC_NODE": 25.3403, "ARG_OF_PERICENTER": 107.8799, "MEAN_ANOMALY": 252.2651, "EPHEMERIS_TYPE": 0, "CLASSIFICATION_TYPE": "U", "NORAD_CAT_ID": 41774, "ELEMENT_SET_NO": 999, "REV_AT_EPOCH": 51804, "BSTAR": 0.00034920436, "MEAN_MOTION_DOT": 0.0001616, "MEAN_MOTION_DDOT": 0}, "tle": {"line1": "1 41774U 16058E   25351.83065232  .00016160  00000+0  34920-3 0  9992", "line2": "2 41774  96.9293  25.3403 0001835 107.8799 252.2651 15.44576204518047"}}, "geometry": {"type": "Point", "coordinates": [41.37353795850789, -65.76424581962983]}}]}